1 34941U 09027A   20344.87017762 -.00000335  00000-0  00000-0 0  9992
2 34941   0.0374  87.6987 0001872 160.0837 252.7997  1.00269864 42413
1 34942U 09027B   20343.59376216 -.00000107  00000-0  00000-0 0  9990
2 34942  10.1372  18.9356 3447955  89.4918  42.5803  1.57275551 66435
1 34944U 93036ADX 20345.44645954  .00000374  00000-0  18444-3 0  9998
2 34944  73.7636 265.4311 0234865  51.3661 310.8242 14.07484968603853
1 34946U 93036ADZ 20343.94113548 +.00000501 +00000-0 +13098-3 0  9994
2 34946 074.0235 206.5308 0060011 076.2100 284.5729 14.50987731616035
1 34948U 93036AEB 20345.41806793  .00001678  00000-0  45998-3 0  9991
2 34948  74.0218 324.2340 0022912 108.8859  45.1739 14.47750082613574
1 34949U 93036AEC 20344.85420442  .00000441  00000-0  86387-4 0  9997
2 34949  74.0243  40.6799 0096891 286.0904  72.9612 14.63198074623133
1 34951U 93036AEE 20345.27055053  .00001374  00000-0  24958-3 0  9990
2 34951  74.0197  65.3571 0069036 294.1067  65.2891 14.65736309621488
1 34953U 93036AEG 20344.21335125  .00000792  00000-0  19726-3 0  9996
2 34953  74.0980 249.6109 0078893  15.2403 138.1405 14.51501148614828
1 34954U 93036AEH 20343.21607214 +.00001522 +00000-0 +40823-3 0  9991
2 34954 073.9947 295.1624 0026566 148.8101 211.4642 14.48846103612405
1 34955U 93036AEJ 20341.10016308  .00000656  00000-0  89484-4 0  9990
2 34955  74.0464 275.7866 0118716 113.0503 248.3241 14.76146836628579
1 34958U 93036AEM 20345.34569473  .00001274  00000-0  11412-3 0  9991
2 34958  74.0124 119.3516 0145669 317.7615  41.2415 14.89356035632367
1 34962U 93036AER 20344.07728574  .00000307  00000-0  10638-3 0  9999
2 34962  74.0332 345.8533 0020680 192.2890 224.7646 14.39683045612051
1 34963U 93036AES 20344.84853244  .00000858  00000-0  30863-3 0  9991
2 34963  74.1769 152.1110 0052049 140.3258 220.1721 14.34425220604805
1 34964U 93036AET 20341.11910202  .00000456  00000-0  31278-3 0  9992
2 34964  73.9789 257.8963 0238057 145.5989 216.0816 13.89326938589555
1 34965U 93036AEU 20345.31241802  .00000197  00000-0  65494-4 0  9992
2 34965  74.0536 293.3854 0027674 162.9289 349.1871 14.43796633614900
1 34966U 93036AEV 20344.90914409  .00011350  00000-0  83957-3 0  9993
2 34966  73.9660 190.9477 0027400 169.3063 190.8714 15.02943817624438
1 34967U 93036AEW 20344.82021016  .00000438  00000-0  16034-3 0  9995
2 34967  73.9982  32.4270 0046596 248.4471 111.1712 14.35267362388920
1 34968U 93036AEX 20344.77416610  .00000131  00000-0  35026-4 0  9991
2 34968  74.0393 121.1005 0092068 345.0250  14.8189 14.56030323618375
1 34969U 93036AEY 20345.05639221  .00000224  00000-0  96834-4 0  9996
2 34969  74.0150 110.8333 0080141 313.2037  46.2435 14.28373100609033
1 34970U 93036AEZ 20344.82874091  .00018466  00000-0  92567-3 0  9993
2 34970  74.0174 167.6283 0019562  17.1615 343.0238 15.17147685415508
1 34971U 93036AFA 20344.82875064  .00000181  00000-0  50636-4 0  9992
2 34971  73.9777 148.9455 0073569  83.7365 342.8699 14.51812866396072
1 34972U 93036AFB 20345.25102090  .00000890  00000-0  24947-3 0  9995
2 34972  73.9966 277.3833 0054470 150.5567 359.8499 14.46665012611650
1 34976U 93036AFF 20344.69263367  .00000729  00000-0  17152-3 0  9992
2 34976  74.0645 199.3143 0067308   7.2853  53.5998 14.54867221615535
1 34977U 93036AFG 20344.91660110  .00001916  00000-0  49108-3 0  9990
2 34977  74.0277 309.9318 0052803 121.6683 238.9643 14.50191644610868
1 34978U 93036AFH 20345.24983966  .00003654  00000-0  50880-3 0  9995
2 34978  74.0262  11.1274 0043855 251.0276 108.6144 14.77514913619785
1 34979U 93036AFJ 20344.91789726  .00000738  00000-0  16815-3 0  9997
2 34979  74.0452 173.2552 0073738   2.4195 357.7310 14.56093048614726
1 34983U 97051NP  20340.53234168 +.00008298 +00000-0 +13223-2 0  9990
2 34983 086.3563 070.1873 0036562 134.2469 226.1759 14.71407076614984
1 34985U 97051NR  20344.64408656  .00000374  00000-0  12519-3 0  9998
2 34985  86.3725 110.3757 0025348 100.2593 320.0433 14.34553817609043
1 34986U 97051NS  20344.48450447  .00003333  00000-0  79044-3 0  9990
2 34986  86.3828  95.4938 0027816 264.7095  95.0938 14.53521103612101
1 34987U 97051NT  20344.50710303  .00004813  00000-0  60487-3 0  9999
2 34987  86.3384  11.1739 0005753   4.6185 355.5089 14.81905164628720
1 34989U 93036AFM 20345.29355489  .00001219  00000-0  28536-3 0  9993
2 34989  74.0207 200.8269 0029602  69.3372 291.0961 14.55461464612569
1 34990U 93036AFN 20345.46002800  .00000302  00000-0  11066-3 0  9992
2 34990  74.0484  20.9043 0017172 185.7806 174.3152 14.36968706611770
1 34991U 93036AFP 20341.91996272  .00002084  00000-0  43086-3 0  9990
2 34991  74.0430 197.5985 0013346  60.5500 299.6996 14.60944991616687
1 34993U 93036AFR 20344.67842810  .00005609  00000-0  92917-3 0  9999
2 34993  74.0137 219.8285 0030138 352.7212   7.3517 14.70197141616218
1 34995U 93036AFT 20340.09136902 +.00003305 +00000-0 +64616-3 0  9997
2 34995 073.8331 124.6386 0045632 000.5130 359.6074 14.62650401615360
1 34997U 93036AFV 20342.56719307 +.00000862 +00000-0 +32893-3 0  9996
2 34997 073.8886 093.6609 0119577 080.6461 280.8184 14.28436237444982
1 34998U 93036AFW 20343.41382885  .00000346  00000-0  11577-3 0  9992
2 34998  74.0144 327.2550 0023915 196.0992 316.7795 14.40955798610057
1 35000U 93036AFY 20344.54975432  .00001056  00000-0  22781-3 0  9996
2 35000  74.0382 178.0338 0076565   0.1342 359.9828 14.57907654615355
1 35008U 09029A   20345.12986762  .00002722  00000-0  46285-3 0  9992
2 35008  63.0096 178.8998 7313908 249.7770 313.1868  2.24851380 94623
1 35012U 93036AFZ 20345.18017878  .00000079  00000-0  30443-4 0  9990
2 35012  74.0212 275.7496 0083042 140.3812 220.3454 14.43132850611958
1 35014U 93036AGB 20342.52174968 +.00000893 +00000-0 +25001-3 0  9998
2 35014 074.0093 279.8109 0013223 158.6810 201.4903 14.47508720446926
1 35015U 93036AGC 20345.47216644  .00000593  00000-0  20834-3 0  9990
2 35015  73.9543  24.4470 0092343 299.1629 125.1907 14.34847627610094
1 35016U 93036AGD 20344.85545317  .00000243  00000-0  96525-4 0  9997
2 35016  73.9335  51.4842 0122159 359.2581 116.5728 14.30146938606061
1 35018U 93036AGF 20344.34887258  .00000301  00000-0  27273-3 0  9994
2 35018  73.9802 221.1039 0366550 142.2041 220.5434 13.60524993582620
1 35019U 93036AGG 20344.63342390  .00004878  00000-0  71043-3 0  9997
2 35019  74.0105  73.0780 0028052 282.0973  77.7058 14.75873339620248
1 35020U 93036AGH 20344.63607014  .00000196  00000-0  45770-4 0  9994
2 35020  74.0516  88.2974 0098132 313.5262  45.7778 14.58956831615390
1 35022U 93036AGK 20342.89596018 +.00000293 +00000-0 +78049-4 0  9996
2 35022 074.0271 189.6419 0053805 124.1654 236.4626 14.52087579325150
1 35023U 93036AGL 20344.88593514  .00001142  00000-0  24503-3 0  9995
2 35023  74.0504 148.2561 0066014 340.0883 144.1017 14.58520524614471
1 35025U 93036AGN 20344.74014913  .00000414  00000-0  82252-4 0  9990
2 35025  73.9430   7.2874 0101019 339.1931  20.5135 14.62581537618421
1 35026U 93036AGP 20344.88592802  .00000049  00000-0  18634-4 0  9991
2 35026  74.0446 166.2493 0085093  22.8751  43.8249 14.52225897617003
1 35028U 93036AGR 20344.41289045  .00000076  00000-0  23907-4 0  9993
2 35028  74.0373 135.1622 0085987  10.2653  20.5742 14.54565335617575
1 35031U 93036AGU 20342.78954796 +.00000101 +00000-0 +43667-4 0  9991
2 35031 074.0405 023.9156 0020228 212.9754 147.0139 14.35905093389884
1 35032U 93036AGV 20345.09458543  .00000674  00000-0  19881-3 0  9993
2 35032  73.8560 231.0973 0084190  85.3979 345.5870 14.43572916612117
1 35033U 93036AGW 20342.73310241 +.00000444 +00000-0 +14678-3 0  9998
2 35033 074.0314 343.9374 0016787 183.7045 176.3989 14.40789568394950
1 35037U 93036AHA 20342.17159877  .00001293  00000-0  27291-3 0  9994
2 35037  74.0025 140.5197 0044716  31.2897 329.0915 14.59866726401533
1 35038U 93036AHB 20344.84232729  .00001400  00000-0  72703-3 0  9997
2 35038  74.0816  39.0017 0138091 134.1853 348.1831 14.10809208596814
1 35039U 93036AHC 20345.17405119  .00005276  00000-0  85545-3 0  9993
2 35039  74.0155 151.3638 0026712 318.7698  41.1455 14.71222327616825
1 35042U 93036AHF 20344.58588386  .00005219  00000-0  57433-3 0  9991
2 35042  74.0128 303.0317 0031661 214.2182 145.6959 14.87484095623428
1 35043U 93036AHG 20344.32782401  .00001780  00000-0  59905-3 0  9993
2 35043  73.9696 207.4277 0200486 108.4103 253.8957 14.27061753410711
1 35045U 93036AHJ 20344.84296477  .00000184  00000-0  13085-3 0  9991
2 35045  73.7218  27.1930 0191977 183.4486 292.8290 13.95973642590934
1 35049U 97051NV  20345.21863872  .00004576  00000-0  92098-3 0  9997
2 35049  86.3722  61.9367 0025884 277.1896  82.6372 14.61181901615608
1 35050U 97051NW  20344.54060674  .00010490  00000-0  12465-2 0  9994
2 35050  86.3029   5.8526 0019258 333.3496  26.6735 14.84203650618653
1 35051U 97051NX  20344.56030517  .00000505  00000-0  15934-3 0  9991
2 35051  86.3278  77.5214 0008359  11.1263 349.0118 14.38314568606466
1 35052U 97051NY  20344.58414670  .00000184  00000-0  56799-4 0  9998
2 35052  86.3326  81.9070 0010178 313.8559  46.1796 14.35686102610131
1 35054U 97051PA  20344.10119416  .00007825  00000-0  97743-3 0  9990
2 35054  86.3397  33.6594 0010007 308.1568  51.8751 14.82210213619382
1 35058U 93036AHM 20345.07311907  .00010873  00000-0  66735-3 0  9993
2 35058  74.0025 122.9225 0053300 309.4831  50.1652 15.08980970629534
1 35059U 93036AHN 20344.44734685 +.00003674 +00000-0 +62677-3 0  9998
2 35059 073.9916 128.9400 0027508 346.1870 077.5952 14.69111576616902
1 35060U 93036AHP 20343.76602293 +.00000248 +00000-0 +92382-4 0  9994
2 35060 074.0400 017.2933 0019862 199.9930 160.0447 14.36971632609270
1 35061U 93036AHQ 20343.88913578  .00000508  00000-0  12530-3 0  9994
2 35061  74.0481 186.3047 0050769  46.7261 313.8119 14.53987715618981
1 35062U 93036AHR 20344.59218811  .00001214  00000-0  65237-3 0  9999
2 35062  74.0998  79.0801 0151038 174.4639 185.8216 14.08281365596584
